start=new Date('2022-02-27T00:00:00.000Z').valueOf();
sats=[{"RCS_SIZE":"LARGE","REV_AT_EPOCH":"4533","MEAN_ELEMENT_THEORY":"SGP4","ARG_OF_PERICENTER":"58.4904","LAUNCH_DATE":"2021-05-04","EPHEMERIS_TYPE":"0","TLE_LINE1":"1 48382U 21038AF  22057.88496975  .00005710  00000-0  40186-3 0  9996","TLE_LINE2":"2 48382  53.0544 118.8104 0001493  58.4904 301.6230 15.06405843 45334","EPOCH":"2022-02-26T21:14:21.386400","MEAN_MOTION":"15.06405843","COUNTRY_CODE":"US","CLASSIFICATION_TYPE":"U","MEAN_MOTION_DDOT":"0.0000000000000","CENTER_NAME":"EARTH","REF_FRAME":"TEME","BSTAR":"0.00040186000000","PERIAPSIS":"546.162","MEAN_ANOMALY":"301.6230","INCLINATION":"53.0544","PERIOD":"95.592","DECAY_DATE":null,"RA_OF_ASC_NODE":"118.8104","OBJECT_TYPE":"PAYLOAD","SEMIMAJOR_AXIS":"6925.331","MEAN_MOTION_DOT":"0.00005710","ELEMENT_SET_NO":"999","OBJECT_NAME":"STARLINK-2585","SITE":"AFETR","NORAD_CAT_ID":"48382","ECCENTRICITY":"0.00014930","APOAPSIS":"548.230","FILE":"3327391","OBJECT_ID":"2021-038AF","TIME_SYSTEM":"UTC","GP_ID":"197159577"},{"TIME_SYSTEM":"UTC","GP_ID":"197159828","ECCENTRICITY":"0.00016670","NORAD_CAT_ID":"48383","FILE":"3327391","OBJECT_ID":"2021-038AG","APOAPSIS":"548.369","DECAY_DATE":null,"OBJECT_TYPE":"PAYLOAD","RA_OF_ASC_NODE":"118.8134","SITE":"AFETR","SEMIMAJOR_AXIS":"6925.349","MEAN_MOTION_DOT":"0.00001767","ELEMENT_SET_NO":"999","OBJECT_NAME":"STARLINK-2599","BSTAR":"0.00013747000000","MEAN_ANOMALY":"302.0183","PERIAPSIS":"546.060","PERIOD":"95.592","INCLINATION":"53.0558","MEAN_MOTION":"15.06399713","COUNTRY_CODE":"US","REF_FRAME":"TEME","CENTER_NAME":"EARTH","MEAN_MOTION_DDOT":"0.0000000000000","CLASSIFICATION_TYPE":"U","EPOCH":"2022-02-26T21:09:02.586816","TLE_LINE2":"2 48383  53.0558 118.8134 0001667  58.0968 302.0183 15.06399713 46557","EPHEMERIS_TYPE":"0","TLE_LINE1":"1 48383U 21038AG  22057.88127994  .00001767  00000-0  13747-3 0  9990","REV_AT_EPOCH":"4655","RCS_SIZE":"LARGE","MEAN_ELEMENT_THEORY":"SGP4","LAUNCH_DATE":"2021-05-04","ARG_OF_PERICENTER":"58.0968"},{"OBJECT_ID":"2021-038AH","FILE":"3327391","APOAPSIS":"548.374","ECCENTRICITY":"0.00016200","NORAD_CAT_ID":"48384","GP_ID":"197160575","TIME_SYSTEM":"UTC","PERIOD":"95.593","INCLINATION":"53.0555","MEAN_ANOMALY":"309.2540","PERIAPSIS":"546.130","BSTAR":"0.00000828670000","SITE":"AFETR","MEAN_MOTION_DOT":"-0.00000158","SEMIMAJOR_AXIS":"6925.387","ELEMENT_SET_NO":"999","OBJECT_NAME":"STARLINK-2601","OBJECT_TYPE":"PAYLOAD","RA_OF_ASC_NODE":"118.8359","DECAY_DATE":null,"EPOCH":"2022-02-26T21:03:45.422784","TLE_LINE2":"2 48384  53.0555 118.8359 0001620  50.8593 309.2540 15.06387568 46558","REF_FRAME":"TEME","CLASSIFICATION_TYPE":"U","MEAN_MOTION_DDOT":"0.0000000000000","CENTER_NAME":"EARTH","COUNTRY_CODE":"US","MEAN_MOTION":"15.06387568","LAUNCH_DATE":"2021-05-04","ARG_OF_PERICENTER":"50.8593","MEAN_ELEMENT_THEORY":"SGP4","REV_AT_EPOCH":"4655","RCS_SIZE":"LARGE","TLE_LINE1":"1 48384U 21038AH  22057.87760906 -.00000158  00000-0  82867-5 0  9991","EPHEMERIS_TYPE":"0"},{"TLE_LINE1":"1 48385U 21038AJ  22057.87390485  .00003414  00000-0  24796-3 0  9995","EPHEMERIS_TYPE":"0","ARG_OF_PERICENTER":"60.7462","LAUNCH_DATE":"2021-05-04","MEAN_ELEMENT_THEORY":"SGP4","RCS_SIZE":"LARGE","REV_AT_EPOCH":"4655","CENTER_NAME":"EARTH","MEAN_MOTION_DDOT":"0.0000000000000","CLASSIFICATION_TYPE":"U","REF_FRAME":"TEME","COUNTRY_CODE":"US","MEAN_MOTION":"15.06405956","TLE_LINE2":"2 48385  53.0539 118.8478 0001784  60.7462 299.3705 15.06405956 46553","EPOCH":"2022-02-26T20:58:25.379040","SEMIMAJOR_AXIS":"6925.330","MEAN_MOTION_DOT":"0.00003414","OBJECT_NAME":"STARLINK-2598","ELEMENT_SET_NO":"999","SITE":"AFETR","RA_OF_ASC_NODE":"118.8478","OBJECT_TYPE":"PAYLOAD","DECAY_DATE":null,"PERIOD":"95.592","INCLINATION":"53.0539","PERIAPSIS":"545.960","MEAN_ANOMALY":"299.3705","BSTAR":"0.00024796000000","GP_ID":"197158827","TIME_SYSTEM":"UTC","APOAPSIS":"548.431","FILE":"3327391","OBJECT_ID":"2021-038AJ","NORAD_CAT_ID":"48385","ECCENTRICITY":"0.00017840"},{"MEAN_MOTION":"15.06391854","MEAN_MOTION_DDOT":"0.0000000000000","CLASSIFICATION_TYPE":"U","CENTER_NAME":"EARTH","REF_FRAME":"TEME","COUNTRY_CODE":"US","TLE_LINE2":"2 48386  53.0542 114.8177 0001589  56.6158 303.4982 15.06391854 45362","EPOCH":"2022-02-26T15:52:32.557152","EPHEMERIS_TYPE":"0","TLE_LINE1":"1 48386U 21038AK  22057.66148793  .00001986  00000-0  15220-3 0  9990","MEAN_ELEMENT_THEORY":"SGP4","RCS_SIZE":"LARGE","REV_AT_EPOCH":"4536","ARG_OF_PERICENTER":"56.6158","LAUNCH_DATE":"2021-05-04","GP_ID":"197159077","TIME_SYSTEM":"UTC","NORAD_CAT_ID":"48386","ECCENTRICITY":"0.00015890","APOAPSIS":"548.339","OBJECT_ID":"2021-038AK","FILE":"3327391","RA_OF_ASC_NODE":"114.8177","OBJECT_TYPE":"PAYLOAD","DECAY_DATE":null,"MEAN_MOTION_DOT":"0.00001986","SEMIMAJOR_AXIS":"6925.374","OBJECT_NAME":"STARLINK-2606","ELEMENT_SET_NO":"999","SITE":"AFETR","BSTAR":"0.00015220000000","INCLINATION":"53.0542","PERIOD":"95.593","PERIAPSIS":"546.138","MEAN_ANOMALY":"303.4982"},{"LAUNCH_DATE":"2021-05-04","ARG_OF_PERICENTER":"51.0894","REV_AT_EPOCH":"4536","RCS_SIZE":"LARGE","MEAN_ELEMENT_THEORY":"SGP4","TLE_LINE1":"1 48387U 21038AL  22057.62831788  .00000563  00000-0  56697-4 0  9994","EPHEMERIS_TYPE":"0","EPOCH":"2022-02-26T15:04:46.664832","TLE_LINE2":"2 48387  53.0536 114.9653 0001930  51.0894 309.0267 15.06393571 45368","COUNTRY_CODE":"US","REF_FRAME":"TEME","CLASSIFICATION_TYPE":"U","MEAN_MOTION_DDOT":"0.0000000000000","CENTER_NAME":"EARTH","MEAN_MOTION":"15.06393571","MEAN_ANOMALY":"309.0267","PERIAPSIS":"545.897","PERIOD":"95.593","INCLINATION":"53.0536","BSTAR":"0.00005669700000","SITE":"AFETR","SEMIMAJOR_AXIS":"6925.368","ELEMENT_SET_NO":"999","MEAN_MOTION_DOT":"0.00000563","OBJECT_NAME":"STARLINK-2600","DECAY_DATE":null,"OBJECT_TYPE":"PAYLOAD","RA_OF_ASC_NODE":"114.9653","FILE":"3327391","OBJECT_ID":"2021-038AL","APOAPSIS":"548.570","ECCENTRICITY":"0.00019300","NORAD_CAT_ID":"48387","TIME_SYSTEM":"UTC","GP_ID":"197160329"},{"ARG_OF_PERICENTER":"63.0760","LAUNCH_DATE":"2021-05-04","MEAN_ELEMENT_THEORY":"SGP4","REV_AT_EPOCH":"4540","RCS_SIZE":"LARGE","TLE_LINE1":"1 48388U 21038AM  22057.88727833  .00001456  00000-0  11667-3 0  9997","EPHEMERIS_TYPE":"0","EPOCH":"2022-02-26T21:17:40.847712","TLE_LINE2":"2 48388  53.0545 113.7910 0001438  63.0760 297.0375 15.06390173 45406","REF_FRAME":"TEME","MEAN_MOTION_DDOT":"0.0000000000000","CLASSIFICATION_TYPE":"U","CENTER_NAME":"EARTH","COUNTRY_CODE":"US","MEAN_MOTION":"15.06390173","PERIOD":"95.593","INCLINATION":"53.0545","MEAN_ANOMALY":"297.0375","PERIAPSIS":"546.248","BSTAR":"0.00011667000000","SITE":"AFETR","OBJECT_NAME":"STARLINK-2594","SEMIMAJOR_AXIS":"6925.379","MEAN_MOTION_DOT":"0.00001456","ELEMENT_SET_NO":"999","OBJECT_TYPE":"PAYLOAD","RA_OF_ASC_NODE":"113.7910","DECAY_DATE":null,"OBJECT_ID":"2021-038AM","FILE":"3327391","APOAPSIS":"548.240","NORAD_CAT_ID":"48388","ECCENTRICITY":"0.00014380","GP_ID":"197160075","TIME_SYSTEM":"UTC"},{"EPOCH":"2022-02-26T20:59:45.534912","TLE_LINE2":"2 48389  53.0547 108.8479 0001797  63.7677 296.3497 15.06410251 45469","REF_FRAME":"TEME","MEAN_MOTION_DDOT":"0.0000000000000","CENTER_NAME":"EARTH","CLASSIFICATION_TYPE":"U","COUNTRY_CODE":"US","MEAN_MOTION":"15.06410251","ARG_OF_PERICENTER":"63.7677","LAUNCH_DATE":"2021-05-04","MEAN_ELEMENT_THEORY":"SGP4","REV_AT_EPOCH":"4546","RCS_SIZE":"LARGE","TLE_LINE1":"1 48389U 21038AN  22057.87483258  .00007123  00000-0  49648-3 0  9994","EPHEMERIS_TYPE":"0","OBJECT_ID":"2021-038AN","FILE":"3327391","APOAPSIS":"548.427","NORAD_CAT_ID":"48389","ECCENTRICITY":"0.00017970","GP_ID":"197159328","TIME_SYSTEM":"UTC","INCLINATION":"53.0547","PERIOD":"95.591","MEAN_ANOMALY":"296.3497","PERIAPSIS":"545.938","BSTAR":"0.00049648000000","SITE":"AFETR","SEMIMAJOR_AXIS":"6925.317","ELEMENT_SET_NO":"999","MEAN_MOTION_DOT":"0.00007123","OBJECT_NAME":"STARLINK-1904","OBJECT_TYPE":"PAYLOAD","RA_OF_ASC_NODE":"108.8479","DECAY_DATE":null},{"SEMIMAJOR_AXIS":"6925.360","MEAN_MOTION_DOT":"0.00001157","ELEMENT_SET_NO":"999","OBJECT_NAME":"STARLINK-2586","SITE":"AFETR","RA_OF_ASC_NODE":"108.8751","OBJECT_TYPE":"PAYLOAD","DECAY_DATE":null,"INCLINATION":"53.0549","PERIOD":"95.592","PERIAPSIS":"546.110","MEAN_ANOMALY":"304.6480","BSTAR":"0.00009657100000","GP_ID":"197159578","TIME_SYSTEM":"UTC","APOAPSIS":"548.340","OBJECT_ID":"2021-038AP","FILE":"3327391","NORAD_CAT_ID":"48390","ECCENTRICITY":"0.00016100","TLE_LINE1":"1 48390U 21038AP  22057.87114668  .00001157  00000-0  96571-4 0  9991","EPHEMERIS_TYPE":"0","ARG_OF_PERICENTER":"55.4661","LAUNCH_DATE":"2021-05-04","MEAN_ELEMENT_THEORY":"SGP4","RCS_SIZE":"LARGE","REV_AT_EPOCH":"4668","MEAN_MOTION_DDOT":"0.0000000000000","CENTER_NAME":"EARTH","CLASSIFICATION_TYPE":"U","REF_FRAME":"TEME","COUNTRY_CODE":"US","MEAN_MOTION":"15.06396360","TLE_LINE2":"2 48390  53.0549 108.8751 0001610  55.4661 304.6480 15.06396360 46685","EPOCH":"2022-02-26T20:54:27.073152"},{"TLE_LINE1":"1 48391U 21038AQ  22057.53572121  .00000878  00000-0  77844-4 0  9998","EPHEMERIS_TYPE":"0","LAUNCH_DATE":"2021-05-04","ARG_OF_PERICENTER":"53.9630","MEAN_ELEMENT_THEORY":"SGP4","REV_AT_EPOCH":"4663","RCS_SIZE":"LARGE","REF_FRAME":"TEME","MEAN_MOTION_DDOT":"0.0000000000000","CLASSIFICATION_TYPE":"U","CENTER_NAME":"EARTH","COUNTRY_CODE":"US","MEAN_MOTION":"15.06398233","EPOCH":"2022-02-26T12:51:26.312544","TLE_LINE2":"2 48391  53.0552 110.3767 0001855  53.9630 306.1531 15.06398233 46635","SITE":"AFETR","MEAN_MOTION_DOT":"0.00000878","SEMIMAJOR_AXIS":"6925.354","OBJECT_NAME":"STARLINK-2607","ELEMENT_SET_NO":"999","OBJECT_TYPE":"PAYLOAD","RA_OF_ASC_NODE":"110.3767","DECAY_DATE":null,"INCLINATION":"53.0552","PERIOD":"95.592","MEAN_ANOMALY":"306.1531","PERIAPSIS":"545.934","BSTAR":"0.00007784400000","GP_ID":"197159829","TIME_SYSTEM":"UTC","OBJECT_ID":"2021-038AQ","FILE":"3327391","APOAPSIS":"548.504","ECCENTRICITY":"0.00018550","NORAD_CAT_ID":"48391"}];
